MEAN_MOTION;ECCENTRICITY;INCLINATION;RA_OF_ASC_NODE;ARG_OF_PERICENTER;MEAN_ANOMALY;BSTAR;MEAN_MOTION_DOT;MEAN_MOTION_DDOT;TYPE
13.74664956;0.0030373;82.9241;145.2426;132.3956;343.8527;1.7099E-6;1.7E-7;0;Amateur
13.74664963;0.003043;82.9243;144.8742;131.0056;282.1667;-1.1724E-5;4.0E-8;0;Amateur
13.74664969;0.003045;82.9242;144.4292;129.3939;8.8267;-6.1992E-6;1.0E-7;0;Amateur
13.74664968;0.0030475;82.9241;144.117;128.2624;290.7436;-5.0082E-6;1.1E-7;0;Amateur
13.74664956;0.003049;82.924;143.7267;126.8469;12.688;-1.7565E-6;1.4E-7;0;Amateur
13.74664971;0.0030472;82.9237;143.3071;125.3815;288.0922;-9.5598E-7;1.5E-7;0;Amateur
13.74664974;0.0030481;82.9237;143.076;124.5427;29.0959;-1.6744E-7;1.5E-7;0;Amateur
13.74664974;0.0030556;82.9236;142.4859;122.358;5.1253;1.2867E-5;2.8E-7;0;Amateur
13.7466463;0.0030535;82.9238;141.9661;119.6969;240.7173;-2.0206E-5;-4.0E-8;0;Amateur
13.74664985;0.0030587;82.9231;140.8127;116.3628;358.1762;6.161E-7;1.6E-7;0;Amateur
13.74665057;0.0030659;82.923;140.0554;113.5977;8.7181;1.9787E-5;3.4E-7;0;Amateur
13.74665104;0.0030676;82.9229;139.3539;111.0896;5.1949;1.7566E-5;3.2E-7;0;Amateur
13.7466512;0.003068;82.9228;138.93;109.5668;310.7602;1.2424E-5;2.7E-7;0;Amateur
13.74665146;0.0030679;82.9227;138.598;108.3856;3.655;1.1965E-5;2.7E-7;0;Amateur
13.74665158;0.0030692;82.9226;137.9495;106.0442;6.6325;6.5245E-6;2.2E-7;0;Amateur
13.74665189;0.003069;82.9225;137.7837;105.4453;32.5545;7.3188E-6;2.2E-7;0;Amateur
13.74665159;0.0030703;82.9224;137.1938;103.338;4.4846;-9.0255E-7;1.5E-7;0;Amateur
13.74665148;0.0030702;82.9224;137.1393;103.1479;7.699;-3.4508E-6;1.2E-7;0;Amateur
13.746651;0.0030711;82.9222;136.4371;100.6083;8.5497;-1.0438E-5;6.0E-8;0;Amateur
13.74665103;0.003071;82.9222;136.3818;100.4191;17.1121;-1.1279E-5;5.0E-8;0;Amateur
13.74665088;0.0030718;82.922;135.6805;97.9136;11.6004;-1.0695E-5;5.0E-8;0;Amateur
13.74665085;0.003072;82.922;135.6251;97.7125;20.6224;-1.1959E-5;4.0E-8;0;Amateur
13.7466507;0.0030726;82.9218;134.9235;95.1965;16.9654;-7.5714E-6;8.0E-8;0;Amateur
13.7466508;0.0030726;82.9216;134.1666;92.4911;22.0389;1.1636E-6;1.7E-7;0;Amateur
13.74665086;0.0030722;82.9215;133.5191;90.1756;17.7288;9.5753E-6;2.5E-7;0;Amateur
13.74665094;0.0030716;82.9214;133.3524;89.5761;48.4058;1.0055E-5;2.5E-7;0;Amateur
13.7466508;0.0030723;82.9213;132.7623;87.4484;21.5685;1.3793E-5;2.9E-7;0;Amateur
13.74665081;0.003072;82.9213;132.7074;87.2499;27.623;1.328E-5;2.8E-7;0;Amateur
13.74665076;0.0030667;82.9211;132.0055;84.7256;23.5822;-9.3323E-7;1.5E-7;0;Amateur
13.74665071;0.0030666;82.9211;131.951;84.5287;26.8983;-1.878E-6;1.4E-7;0;Amateur
13.74665026;0.0030663;82.921;131.303;82.1969;25.5862;-5.9774E-6;1.0E-7;0;Amateur
13.74665024;0.0030653;82.9209;130.7684;80.2786;348.3864;-5.4141E-6;1.0E-7;0;Amateur
13.74665037;0.0030649;82.9208;130.4363;79.0798;41.6867;-3.3328E-6;1.2E-7;0;Amateur
13.74665047;0.0030635;82.9207;129.7892;76.7649;33.9838;-5.4948E-7;1.5E-7;0;Amateur
13.74665051;0.0030635;82.9207;129.735;76.5698;35.5256;-3.6688E-7;1.5E-7;0;Amateur
13.74665189;0.0030659;82.9206;129.0328;74.0748;36.1206;1.3319E-5;2.8E-7;0;Amateur
13.74665193;0.0030658;82.9206;128.9773;73.8763;46.2911;1.191E-5;2.7E-7;0;Amateur
13.74665202;0.0030658;82.9206;128.9205;73.6673;64.9048;1.2125E-5;2.7E-7;0;Amateur
13.74665231;0.0030649;82.9205;128.6666;72.7639;316.5504;1.2414E-5;2.7E-7;0;Amateur
13.74665251;0.0030628;82.9204;127.7956;69.6309;1.0772;5.631E-6;2.1E-7;0;Amateur
13.74665237;0.0030613;82.9204;127.5192;68.6299;43.1246;1.2507E-6;1.7E-7;0;Amateur
13.74665217;0.003059;82.9203;126.8709;66.3057;43.0472;-4.4395E-6;1.1E-7;0;Amateur
13.74665199;0.0030557;82.9202;126.1143;63.5855;44.721;-9.6684E-6;6.0E-8;0;Amateur
13.74665199;0.0030522;82.92;125.303;60.6672;50.7575;-7.344E-6;8.0E-8;0;Amateur
13.74665228;0.0030481;82.9199;124.5451;57.9292;60.8556;1.9673E-6;1.7E-7;0;Amateur
13.74665303;0.0030434;82.9198;123.5819;54.4591;359.0906;2.1075E-5;3.5E-7;0;Amateur
13.74665353;0.0030396;82.9197;123.0285;52.4538;86.8387;2.5981E-5;4.0E-7;0;Amateur
13.74665377;0.0030374;82.9197;122.6614;51.1285;13.3991;2.852E-5;4.2E-7;0;Amateur
13.74665395;0.0030346;82.9197;122.3291;49.9251;67.3557;3.0416E-5;4.4E-7;0;Amateur
13.74665501;0.0030282;82.9196;121.3104;46.2421;15.3068;3.9434E-5;5.3E-7;0;Amateur
13.74665564;0.0030232;82.9196;120.5532;43.4954;20.8326;3.5171E-5;4.9E-7;0;Amateur
13.74665601;0.00302;82.9195;120.1128;41.8774;75.032;3.1592E-5;4.5E-7;0;Amateur
13.74665617;0.003015;82.9196;119.4105;39.3152;74.8269;2.0386E-5;3.5E-7;0;Amateur
13.74665614;0.0030135;82.9195;119.0966;38.1707;6.5306;1.622E-5;3.1E-7;0;Amateur
13.74665583;0.0030098;82.9196;118.6543;36.5641;73.5955;4.2336E-6;1.9E-7;0;Amateur
13.74665567;0.0030082;82.9196;118.3448;35.4259;336.2085;-7.207E-7;1.5E-7;0;Amateur
13.74665591;0.0030046;82.9196;117.8965;33.7819;82.8922;-4.0067E-6;1.1E-7;0;Amateur
13.74665589;0.0029993;82.9196;117.1391;30.999;88.6614;-8.6868E-6;7.0E-8;0;Amateur
13.74665578;0.002993;82.9196;116.4377;28.447;82.3955;-8.3134E-6;7.0E-8;0;Amateur
13.74665617;0.0029901;82.9196;116.1207;27.2996;34.9032;-1.0454E-6;1.4E-7;0;Amateur
13.74665609;0.0029889;82.9196;116.0121;26.9136;38.9143;-3.6878E-6;1.2E-7;0;Amateur
13.74665627;0.0029871;82.9196;115.7353;25.8633;83.1925;2.6749E-6;1.8E-7;0;Amateur
13.74665639;0.0029828;82.9196;115.2551;24.1089;42.3511;3.1844E-6;1.8E-7;0;Amateur
13.74665609;0.0029802;82.9196;114.923;22.8933;95.2504;3.2948E-6;1.8E-7;0;Amateur
13.74665605;0.0029754;82.9196;114.498;21.3749;47.2049;4.9402E-6;2.0E-7;0;Amateur
13.74665581;0.0029715;82.9196;113.9044;19.1704;42.5303;8.007E-6;2.3E-7;0;Amateur
13.74665571;0.0029698;82.9196;113.7442;18.5799;30.0191;6.1399E-6;2.1E-7;0;Amateur
13.74665599;0.002963;82.9196;113.1482;16.3115;42.3856;-1.9964E-6;1.3E-7;0;Amateur
13.74665606;0.0029612;82.9197;112.9875;15.7163;33.5777;-6.1338E-7;1.5E-7;0;Amateur
13.74665571;0.0029559;82.9197;112.3919;13.5168;42.4236;-3.5593E-6;1.2E-7;0;Amateur
13.74665484;0.0029546;82.9198;112.0054;11.9587;98.0701;-1.3803E-5;2.0E-8;0;Amateur
13.74665454;0.0029518;82.9198;111.6882;10.7807;51.5822;-1.6624E-5;-1.0E-8;0;Amateur
13.74665471;0.0029484;82.9199;111.2479;9.1329;105.7869;-1.2521E-5;3.0E-8;0;Amateur
13.74665484;0.0029453;82.9199;110.9321;7.9749;50.0029;-8.8162E-6;7.0E-8;0;Amateur
13.74665501;0.0029408;82.92;110.4906;6.3596;112.2553;-5.7427E-6;1.0E-7;0;Amateur
13.74665507;0.0029377;82.92;110.1758;5.1896;50.0666;-3.5534E-6;1.2E-7;0;Amateur
13.74665569;0.0029352;82.92;109.7888;3.8317;107.4015;1.3881E-6;1.6E-7;0;Amateur
13.74665582;0.0029321;82.92;109.4718;2.6509;60.1599;1.7955E-6;1.7E-7;0;Amateur
13.74665589;0.0029318;82.9201;109.4194;2.4612;49.1694;8.1054E-7;1.6E-7;0;Amateur
13.74665609;0.002929;82.9201;109.031;0.9762;117.4099;-1.038E-8;1.5E-7;0;Amateur
13.74665618;0.0029258;82.9202;108.7154;359.8023;60.2523;-2.672E-6;1.3E-7;0;Amateur
13.74665612;0.0029246;82.9202;108.6066;359.3968;65.5164;-5.9279E-6;9.0E-8;0;Amateur
13.74665622;0.002922;82.9203;108.2742;358.1408;120.6868;-4.9727E-6;1.0E-7;0;Amateur
13.74665609;0.0029183;82.9203;107.9593;356.9724;58.67;-9.0288E-6;6.0E-8;0;Amateur
13.74665593;0.0029171;82.9203;107.8491;356.5668;73.2774;-1.2848E-5;3.0E-8;0;Amateur
13.7466558;0.0029115;82.9204;107.2033;354.1387;57.1017;-1.4477E-5;1.0E-8;0;Amateur
13.74665583;0.002909;82.9205;106.8153;352.6577;122.2053;-1.2975E-5;3.0E-8;0;Amateur
13.74665605;0.002905;82.9205;106.4463;351.2763;61.36;-1.0798E-5;5.0E-8;0;Amateur
13.74665601;0.0029018;82.9206;106.0578;349.8026;130.0495;-7.601E-6;8.0E-8;0;Amateur
13.74665601;0.0028985;82.9206;105.7432;348.6241;66.92;-5.7848E-6;9.0E-8;0;Amateur
13.7466559;0.0028905;82.9207;104.9318;345.5623;74.238;-6.3578E-7;1.4E-7;0;Amateur
13.74665606;0.0028888;82.9208;104.599;344.2806;132.2109;5.2182E-6;2.0E-7;0;Amateur
13.74665602;0.0028844;82.9209;104.1228;342.4696;65.7287;7.3971E-6;2.2E-7;0;Amateur
13.74665591;0.0028787;82.921;103.5271;340.2;75.8026;9.6076E-6;2.4E-7;0;Amateur
13.74665543;0.0028776;82.921;103.0824;338.3906;161.1558;-1.1146E-5;4.0E-8;0;Amateur
13.74665529;0.0028748;82.9211;102.7715;337.2077;73.719;-1.1697E-5;4.0E-8;0;Amateur
13.74665517;0.0028711;82.9212;102.3274;335.5159;153.2259;-1.2132E-5;3.0E-8;0;Amateur
13.74665498;0.002868;82.9212;102.0146;334.3251;78.021;-1.3505E-5;2.0E-8;0;Amateur
13.74665488;0.0028622;82.9214;101.3116;331.6353;83.8545;-1.1588E-5;4.0E-8;0;Amateur
13.74665484;0.0028616;82.9214;101.2571;331.4286;86.7411;-1.1963E-5;4.0E-8;0;Amateur
13.74665456;0.0028597;82.9215;100.9249;330.1473;140.8547;-1.3983E-5;2.0E-8;0;Amateur
13.74665445;0.0028553;82.9216;100.4471;328.3151;86.0177;-1.3547E-5;2.0E-8;0;Amateur
13.74665457;0.0028517;82.9216;100.1116;327.0321;161.8065;-9.9083E-6;5.0E-8;0;Amateur
13.74665451;0.0028482;82.9217;99.6915;325.4191;81.7541;-9.0249E-6;6.0E-8;0;Amateur
13.7466545;0.0028429;82.9217;99.0413;322.917;96.0154;-7.9508E-6;7.0E-8;0;Amateur
13.74665457;0.0028409;82.9218;98.6509;321.4075;178.2394;-6.4693E-6;9.0E-8;0;Amateur
13.74665447;0.0028375;82.9219;98.2845;319.9879;99.9473;-8.0418E-6;7.0E-8;0;Amateur
13.74665477;0.0028356;82.9219;97.8943;318.4823;180.7677;-2.8327E-6;1.2E-7;0;Amateur
13.74665497;0.0028297;82.9223;97.5829;317.3578;95.1074;-1.8911E-5;-3.0E-8;0;Amateur
13.74665528;0.0028252;82.9224;96.8798;314.6389;101.5701;-1.0352E-5;5.0E-8;0;Amateur
13.74665523;0.0028244;82.9224;96.8253;314.4259;104.72;-1.1837E-5;4.0E-8;0;Amateur
13.74665522;0.0028227;82.9225;96.4934;313.1399;157.0984;-7.5466E-6;8.0E-8;0;Amateur
13.74665521;0.0028199;82.9226;96.1231;311.7046;105.4475;-4.364E-6;1.1E-7;0;Amateur
13.74665515;0.0028193;82.9226;96.0688;311.4928;107.472;-5.4408E-6;1.0E-7;0;Amateur
13.7466554;0.0028152;82.9227;95.3673;308.7556;103.6167;3.7621E-6;1.8E-7;0;Amateur
13.74665534;0.002815;82.9227;95.3114;308.5402;116.4384;3.3519E-6;1.8E-7;0;Amateur
13.74665565;0.0028128;82.9228;94.979;307.2449;171.6735;1.1084E-5;2.5E-7;0;Amateur
13.74665585;0.0028086;82.9229;94.3848;304.9287;172.985;1.841E-5;3.2E-7;0;Amateur
13.74665601;0.0028052;82.9229;93.8533;302.8548;115.9692;1.9906E-5;3.4E-7;0;Amateur
13.74665624;0.0028044;82.923;93.5204;301.5572;174.8761;2.3133E-5;3.7E-7;0;Amateur
